CCSDS_OMM_VERS = 2.0
CREATION_DATE  = 
ORIGINATOR     = 

OBJECT_NAME    = IDEFIX & ARIANE 42P R/B
OBJECT_ID      = 2002-021B
CENTER_NAME    = EARTH
REF_FRAME      = TEME
TIME_SYSTEM    = UTC
MEAN_ELEMENT_THEORY = SGP/SGP4

EPOCH          = 2025-12-23T01:43:19.219872
MEAN_MOTION    = 14.30957378
ECCENTRICITY   = .00128139
INCLINATION    = 98.5801
RA_OF_ASC_NODE = 291.6291
ARG_OF_PERICENTER = 55.8083
MEAN_ANOMALY   = 304.4313

EPHEMERIS_TYPE = 0
CLASSIFICATION_TYPE = U
NORAD_CAT_ID   = 27422
ELEMENT_SET_NO = 999
REV_AT_EPOCH   = 23306
BSTAR          = .12681433E-3
MEAN_MOTION_DOT = .29E-5
MEAN_MOTION_DDOT = 0

CCSDS_OMM_VERS = 2.0
CREATION_DATE  = 
ORIGINATOR     = 

OBJECT_NAME    = AQUA
OBJECT_ID      = 2002-022A
CENTER_NAME    = EARTH
REF_FRAME      = TEME
TIME_SYSTEM    = UTC
MEAN_ELEMENT_THEORY = SGP/SGP4

EPOCH          = 2025-12-23T02:23:06.539136
MEAN_MOTION    = 14.61823033
ECCENTRICITY   = .00014844
INCLINATION    = 98.4053
RA_OF_ASC_NODE = 318.1475
ARG_OF_PERICENTER = 109.2410
MEAN_ANOMALY   = 342.3415

EPHEMERIS_TYPE = 0
CLASSIFICATION_TYPE = U
NORAD_CAT_ID   = 27424
ELEMENT_SET_NO = 999
REV_AT_EPOCH   = 25754
BSTAR          = .19102714E-3
MEAN_MOTION_DOT = .905E-5
MEAN_MOTION_DDOT = 0

CCSDS_OMM_VERS = 2.0
CREATION_DATE  = 
ORIGINATOR     = 

OBJECT_NAME    = CZ-4B R/B
OBJECT_ID      = 2002-024C
CENTER_NAME    = EARTH
REF_FRAME      = TEME
TIME_SYSTEM    = UTC
MEAN_ELEMENT_THEORY = SGP/SGP4

EPOCH          = 2025-12-23T02:42:36.522144
MEAN_MOTION    = 14.14530059
ECCENTRICITY   = .00493182
INCLINATION    = 98.8984
RA_OF_ASC_NODE = 45.8479
ARG_OF_PERICENTER = 239.8816
MEAN_ANOMALY   = 174.4513

EPHEMERIS_TYPE = 0
CLASSIFICATION_TYPE = U
NORAD_CAT_ID   = 27432
ELEMENT_SET_NO = 999
REV_AT_EPOCH   = 21841
BSTAR          = .57330613E-4
MEAN_MOTION_DOT = .66E-6
MEAN_MOTION_DDOT = 0

CCSDS_OMM_VERS = 2.0
CREATION_DATE  = 
ORIGINATOR     = 

OBJECT_NAME    = MIDORI II (ADEOS-II)
OBJECT_ID      = 2002-056A
CENTER_NAME    = EARTH
REF_FRAME      = TEME
TIME_SYSTEM    = UTC
MEAN_ELEMENT_THEORY = SGP/SGP4

EPOCH          = 2025-12-22T20:47:57.893856
MEAN_MOTION    = 14.29212003
ECCENTRICITY   = .0000712
INCLINATION    = 98.7653
RA_OF_ASC_NODE = 309.8768
ARG_OF_PERICENTER = 148.9986
MEAN_ANOMALY   = 211.1237

EPHEMERIS_TYPE = 0
CLASSIFICATION_TYPE = U
NORAD_CAT_ID   = 27597
ELEMENT_SET_NO = 999
REV_AT_EPOCH   = 19932
BSTAR          = .11434E-3
MEAN_MOTION_DOT = .245E-5
MEAN_MOTION_DDOT = 0

CCSDS_OMM_VERS = 2.0
CREATION_DATE  = 
ORIGINATOR     = 

OBJECT_NAME    = H-2A R/B
OBJECT_ID      = 2002-056E
CENTER_NAME    = EARTH
REF_FRAME      = TEME
TIME_SYSTEM    = UTC
MEAN_ELEMENT_THEORY = SGP/SGP4

EPOCH          = 2025-12-23T03:20:52.748160
MEAN_MOTION    = 14.33684784
ECCENTRICITY   = .00709977
INCLINATION    = 98.3082
RA_OF_ASC_NODE = 315.4828
ARG_OF_PERICENTER = 30.5577
MEAN_ANOMALY   = 340.0752

EPHEMERIS_TYPE = 0
CLASSIFICATION_TYPE = U
NORAD_CAT_ID   = 27601
ELEMENT_SET_NO = 999
REV_AT_EPOCH   = 20314
BSTAR          = .14530695E-3
MEAN_MOTION_DOT = .373E-5
MEAN_MOTION_DDOT = 0

CCSDS_OMM_VERS = 2.0
CREATION_DATE  = 
ORIGINATOR     = 

OBJECT_NAME    = CZ-4B R/B
OBJECT_ID      = 2003-049C
CENTER_NAME    = EARTH
REF_FRAME      = TEME
TIME_SYSTEM    = UTC
MEAN_ELEMENT_THEORY = SGP/SGP4

EPOCH          = 2025-12-22T20:13:36.010560
MEAN_MOTION    = 14.54918445
ECCENTRICITY   = .00493484
INCLINATION    = 98.6795
RA_OF_ASC_NODE = 343.7886
ARG_OF_PERICENTER = 105.8352
MEAN_ANOMALY   = 254.8292

EPHEMERIS_TYPE = 0
CLASSIFICATION_TYPE = U
NORAD_CAT_ID   = 28059
ELEMENT_SET_NO = 999
REV_AT_EPOCH   = 17542
BSTAR          = .93980651E-4
MEAN_MOTION_DOT = .359E-5
MEAN_MOTION_DDOT = 0

CCSDS_OMM_VERS = 2.0
CREATION_DATE  = 
ORIGINATOR     = 

OBJECT_NAME    = CZ-2C R/B
OBJECT_ID      = 2004-012C
CENTER_NAME    = EARTH
REF_FRAME      = TEME
TIME_SYSTEM    = UTC
MEAN_ELEMENT_THEORY = SGP/SGP4

EPOCH          = 2025-12-22T18:32:24.222048
MEAN_MOTION    = 15.56229086
ECCENTRICITY   = .001652
INCLINATION    = 97.7400
RA_OF_ASC_NODE = 50.2269
ARG_OF_PERICENTER = 231.3036
MEAN_ANOMALY   = 128.6741

EPHEMERIS_TYPE = 0
CLASSIFICATION_TYPE = U
NORAD_CAT_ID   = 28222
ELEMENT_SET_NO = 999
REV_AT_EPOCH   = 19228
BSTAR          = .56709424E-3
MEAN_MOTION_DOT = .40041E-3
MEAN_MOTION_DDOT = 0

CCSDS_OMM_VERS = 2.0
CREATION_DATE  = 
ORIGINATOR     = 

OBJECT_NAME    = SL-16 R/B
OBJECT_ID      = 2004-021B
CENTER_NAME    = EARTH
REF_FRAME      = TEME
TIME_SYSTEM    = UTC
MEAN_ELEMENT_THEORY = SGP/SGP4

EPOCH          = 2025-12-23T05:29:06.520416
MEAN_MOTION    = 14.14579041
ECCENTRICITY   = .000472
INCLINATION    = 71.0005
RA_OF_ASC_NODE = 32.9543
ARG_OF_PERICENTER = 182.5719
MEAN_ANOMALY   = 177.5380

EPHEMERIS_TYPE = 0
CLASSIFICATION_TYPE = U
NORAD_CAT_ID   = 28353
ELEMENT_SET_NO = 999
REV_AT_EPOCH   = 11202
BSTAR          = .54538732E-4
MEAN_MOTION_DOT = .57E-6
MEAN_MOTION_DDOT = 0

CCSDS_OMM_VERS = 2.0
CREATION_DATE  = 
ORIGINATOR     = 

OBJECT_NAME    = CZ-4B R/B
OBJECT_ID      = 2004-035C
CENTER_NAME    = EARTH
REF_FRAME      = TEME
TIME_SYSTEM    = UTC
MEAN_ELEMENT_THEORY = SGP/SGP4

EPOCH          = 2025-12-23T01:02:03.855552
MEAN_MOTION    = 15.27529993
ECCENTRICITY   = .0031647
INCLINATION    = 97.3590
RA_OF_ASC_NODE = 27.2497
ARG_OF_PERICENTER = 239.0694
MEAN_ANOMALY   = 120.7433

EPHEMERIS_TYPE = 0
CLASSIFICATION_TYPE = U
NORAD_CAT_ID   = 28415
ELEMENT_SET_NO = 999
REV_AT_EPOCH   = 16820
BSTAR          = .34458219E-3
MEAN_MOTION_DOT = .9343E-4
MEAN_MOTION_DDOT = 0

CCSDS_OMM_VERS = 2.0
CREATION_DATE  = 
ORIGINATOR     = 

OBJECT_NAME    = CZ-2C R/B
OBJECT_ID      = 2004-046B
CENTER_NAME    = EARTH
REF_FRAME      = TEME
TIME_SYSTEM    = UTC
MEAN_ELEMENT_THEORY = SGP/SGP4

EPOCH          = 2025-12-23T04:42:47.197440
MEAN_MOTION    = 14.26946537
ECCENTRICITY   = .01400055
INCLINATION    = 98.1998
RA_OF_ASC_NODE = 271.9247
ARG_OF_PERICENTER = 21.5564
MEAN_ANOMALY   = 339.1434

EPHEMERIS_TYPE = 0
CLASSIFICATION_TYPE = U
NORAD_CAT_ID   = 28480
ELEMENT_SET_NO = 999
REV_AT_EPOCH   = 9759
BSTAR          = .10943906E-3
MEAN_MOTION_DOT = .254E-5
MEAN_MOTION_DDOT = 0

CCSDS_OMM_VERS = 2.0
CREATION_DATE  = 
ORIGINATOR     = 

OBJECT_NAME    = ARIANE 5 R/B
OBJECT_ID      = 2004-049H
CENTER_NAME    = EARTH
REF_FRAME      = TEME
TIME_SYSTEM    = UTC
MEAN_ELEMENT_THEORY = SGP/SGP4

EPOCH          = 2025-12-23T00:41:52.080864
MEAN_MOTION    = 14.85036922
ECCENTRICITY   = .00834236
INCLINATION    = 98.2528
RA_OF_ASC_NODE = 157.6797
ARG_OF_PERICENTER = 239.1240
MEAN_ANOMALY   = 120.1750

EPHEMERIS_TYPE = 0
CLASSIFICATION_TYPE = U
NORAD_CAT_ID   = 28499
ELEMENT_SET_NO = 999
REV_AT_EPOCH   = 13441
BSTAR          = .13999338E-3
MEAN_MOTION_DOT = .1206E-4
MEAN_MOTION_DDOT = 0

CCSDS_OMM_VERS = 2.0
CREATION_DATE  = 
ORIGINATOR     = 

OBJECT_NAME    = CZ-2D R/B
OBJECT_ID      = 2005-024B
CENTER_NAME    = EARTH
REF_FRAME      = TEME
TIME_SYSTEM    = UTC
MEAN_ELEMENT_THEORY = SGP/SGP4

EPOCH          = 2025-12-22T18:29:38.576832
MEAN_MOTION    = 15.53739982
ECCENTRICITY   = .0003835
INCLINATION    = 97.3624
RA_OF_ASC_NODE = 4.4840
ARG_OF_PERICENTER = 326.9384
MEAN_ANOMALY   = 33.1629

EPHEMERIS_TYPE = 0
CLASSIFICATION_TYPE = U
NORAD_CAT_ID   = 28738
ELEMENT_SET_NO = 999
REV_AT_EPOCH   = 12781
BSTAR          = .48888958E-3
MEAN_MOTION_DOT = .31293E-3
MEAN_MOTION_DDOT = 0

